S-NET B                 
1 43187U 18014H   22240.70265794  .00000826  00000+0  74538-4 0  9993
2 43187  97.6513 144.9952 0012537  59.3067 300.9389 14.98112811249731
S-NET A                 
1 43188U 18014J   22240.70296072  .00000811  00000+0  73290-4 0  9995
2 43188  97.6517 145.0630 0012518  59.4846 300.7611 14.98112312249738
S-NET C                 
1 43189U 18014K   22240.70378773  .00000725  00000+0  66031-4 0  9994
2 43189  97.6511 144.9840 0012491  59.2105 301.0345 14.98109180248286
FENGMANIU-1 (FMN-1)     
1 43192U 18015A   22240.89176059  .00016487  00000+0  39297-3 0  9997
2 43192  97.5427  28.1683 0010821 131.7696  19.3773 15.41597630254594
SHAONIAN XING           
1 43199U 18015H   22240.86445963  .00008959  00000+0  25619-3 0  9992
2 43199  97.5213  22.6054 0013532 140.4752  12.2817 15.36125906254551
LUOJIA-1 01             
1 43485U 18048B   22240.87646048  .00000444  00000+0  69400-4 0  9992
2 43485  97.9321 320.9690 0010459 332.8872  27.1787 14.77472598228567
SURFSAT                 
1 43614U 18070B   22240.85071739  .00034045  00000+0  41637-3 0  9993
2 43614  93.0227 129.5870 0013439  91.2794 269.0011 15.60186017222333
CP7 (DAVE)              
1 43615U 18070C   22240.22337888  .00030340  00000+0  39820-3 0  9990
2 43615  93.0219 129.0931 0014000  95.3213 264.9650 15.58320624222192
ELFIN-B                 
1 43616U 18070D   22240.75576114  .00178832  00000+0  76665-3 0  9993
2 43616  93.0092 131.2570 0010632  92.5262 267.7234 15.84570148222732
ELFIN-A                 
1 43617U 18070E   22240.69555056  .00258602  25052-4  75793-3 0  9993
2 43617  93.0144 132.8411 0009410 100.3887 259.8457 15.92654353222802
CZ-4B R/B               
1 43656U 18081B   22240.83430069  .00000056  00000+0  35360-4 0  9996
2 43656  99.4079  20.5410 0207412 296.4081  61.5944 14.30594734200700
CUBEBEL-1 (BSUSAT-1)    
1 43666U 18083E   22240.95727759  .00004232  00000+0  17592-3 0  9993
2 43666  97.4174 268.8580 0014667  80.7412   4.0273 15.24246603212523
CHANGSHAGAOXIN (TY 4-01)
1 43669U 18083H   22240.94996707  .00003873  00000+0  16935-3 0  9996
2 43669  97.4124 264.6038 0011364  80.0922  13.8388 15.22618086212333
TEN-KOH                 
1 43677U 18084G   22240.88307104  .00000585  00000+0  64601-4 0  9997
2 43677  97.9737  11.6353 0016546  37.0138 323.2218 14.91246753208478
DIWATA-2B               
1 43678U 18084H   22240.86930304  .00000488  00000+0  53592-4 0  9999
2 43678  97.9799  15.0256 0010851  52.3622 307.8595 14.92268243208653
STARS-AO                
1 43679U 18084J   22240.60533381  .00001433  00000+0  14067-3 0  9990
2 43679  97.9843  16.8639 0009971  56.8415 303.3759 14.93806243208717
AUTCUBE 2               
1 43681U 18084K   22240.85457952  .00001275  00000+0  12787-3 0  9990
2 43681  97.9804  15.6583 0010264  51.4069 308.8068 14.93128512208657
IRVINE01                
1 43693U 18088D   22240.52557272  .00024954  00000+0  58055-3 0  9994
2 43693  85.0234 261.8088 0011783 179.7429 180.3833 15.42097520211310
ES'HAIL 2               
1 43700U 18090A   22240.83400435  .00000143  00000+0  00000+0 0  9995
2 43700   0.0251 144.3670 0001943  49.6825 108.9919  1.00269786 13752
FACSAT-1                
1 43721U 18096C   22240.75956159  .00010404  00000+0  27519-3 0  9993
2 43721  97.3480 320.6105 0014165 149.4283 331.6751 15.38486888209089
CENTAURI-2              
1 43722U 18096D   22240.75956025  .00020789  00000+0  47828-3 0  9998
2 43722  97.3529 323.0311 0012789 146.5215 213.6843 15.42584766209218
3CAT-1                  
1 43728U 18096K   22240.76221606  .00020231  00000+0  46588-3 0  9999
2 43728  97.3541 323.8010 0012732 148.3360 211.8655 15.42563220209258
INNOSAT-2               
1 43738U 18096V   22240.92993131  .00040282  00000+0  57637-3 0  9992
2 43738  97.3625 331.6154 0011978 139.2852 310.7591 15.56025162209750
REAKTOR HELLO WORLD     
1 43743U 18096AA  22240.77360862  .00009573  00000+0  27971-3 0  9996
2 43743  97.3500 320.3979 0015369 154.8566 205.3429 15.35392747209056
ELYSIUM STAR 2 & LFF    
1 43760U 18099C   22240.82906305  .00002661  00000+0  22297-3 0  9999
2 43760  97.6257 307.8208 0013828  22.9437 337.2401 14.99191842203963
2018-099D               
1 43761U 18099D   22240.91109314  .00000095  00000+0  13486-4 0  9995
2 43761  97.6169 305.6906 0014977  30.9429 329.2676 14.96011225203859
AISTECHSAT 2            
1 43768U 18099L   22240.67937428  .00000933  00000+0  88208-4 0  9995
2 43768  97.6122 303.9423 0011988  33.4887 326.7090 14.95972443203483
FOX-1CLIFF (AO-95)      
1 43770U 18099N   22240.69606749  .00001269  00000+0  11586-3 0  9996
2 43770  97.6147 305.1624 0014750  36.5862 125.2645 14.96710003203815
RANGE-A                 
1 43772U 18099Q   22240.76202193  .00001185  00000+0  10667-3 0  9997
2 43772  97.6274 307.0781 0014209  24.9695 335.2211 14.97417274203858
RANGE-B                 
1 43773U 18099R   22240.60955566  .00000940  00000+0  88211-4 0  9999
2 43773  97.6084 303.8436 0013906  27.8551 332.3412 14.96234907203787
2018-099T               
1 43775U 18099T   22240.60405688  .00001251  00000+0  11589-3 0  9995
2 43775  97.6160 305.1407 0015074  31.8207 328.3922 14.96177191203791
MOVE-II                 
1 43780U 18099Y   22240.82641961  .00001709  00000+0  14873-3 0  9998
2 43780  97.6202 306.5994 0013604  32.8483 327.3582 14.98183465203899
SNUSAT-2                
1 43782U 18099AA  22240.70554047  .00001058  00000+0  97109-4 0  9996
2 43782  97.6157 305.6543 0012704  24.6663 335.5164 14.96856050203846
SNUGLITE                
1 43784U 18099AC  22240.73229009  .00002037  00000+0  18111-3 0  9991
2 43784  97.6124 305.3112 0015276  32.8332 327.3836 14.97099789203879
ITASAT 1                
1 43786U 18099AE  22240.78691612  .00001365  00000+0  12396-3 0  9993
2 43786  97.6180 306.2087 0015218  31.3849 328.8278 14.96818707203871
KAZSCISAT-1             
1 43787U 18099AF  22240.74268540  .00002443  00000+0  21052-3 0  9997
2 43787  97.6116 305.4210 0014260  28.5587 331.6414 14.98167035203926
EAGLET-I                
1 43790U 18099AJ  22240.74166082  .00001440  00000+0  13002-3 0  9991
2 43790  97.6181 306.7057 0013927  36.1148 324.1012 14.96953630203600
ESEO                    
1 43792U 18099AL  22240.77256378  .00000357  00000+0  36562-4 0  9997
2 43792  97.6126 305.8454 0013768  32.3457 327.8606 14.96303895203641
CSIM-FD                 
1 43793U 18099AM  22240.76704658  .00001697  00000+0  14517-3 0  9999
2 43793  97.6205 307.5126 0012860  23.2945 336.8858 14.98856774203716
ASTROCAST 0.1           
1 43798U 18099AS  22240.74974710  .00002352  00000+0  20373-3 0  9996
2 43798  97.6202 307.2896 0012272  14.8167 345.3412 14.98013755203937
JY1SAT (JO-97)          
1 43803U 18099AX  22240.64560215  .00001447  00000+0  12922-3 0  9998
2 43803  97.6140 305.8489 0014931  30.0300 330.1775 14.97374546203874
SUOMI-100               
1 43804U 18099AY  22240.73532562  .00002034  00000+0  18012-3 0  9992
2 43804  97.6145 305.8429 0015381  31.8746 328.3404 14.97267560203894
AL-FARABI 2             
1 43805U 18099AZ  22240.96039954  .00000713  00000+0  65285-4 0  9992
2 43805  97.6173 306.6340 0015318  29.1575 331.0499 14.97914876203958
CENTAURI-1              
1 43809U 18099BD  22240.71598935  .00001115  00000+0  10186-3 0  9994
2 43809  97.6149 306.1177 0015285  31.8115 328.4027 14.96929997203586
CHOMPTT                 
1 43855U 18104G   22240.80555931  .00006160  00000+0  22011-3 0  9996
2 43855  85.0388   2.8734 0013896 336.7811  23.2805 15.28512553205777
DAVINCI                 
1 43857U 18104J   22240.80469062  .00033675  00000+0  78854-3 0  9994
2 43857  85.0290 359.9341 0008570 348.6475  11.4583 15.41921912205996
UWE-4                   
1 43880U 18111E   22240.72666732  .00001339  00000+0  11682-3 0  9990
2 43880  97.6599 145.7690 0012774  78.2047 282.0608 14.98458268200521
ZACUBE-2                
1 43907U 18111AH  22240.87253124  .00003209  00000+0  11717-3 0  9990
2 43907  97.1805 124.6086 0019379 176.5362 314.0969 15.28653636204352
MICRODRAGON             
1 43935U 19003D   22240.80546279  .00004123  00000+0  16009-3 0  9996
2 43935  97.1331 267.6781 0014611 278.2173  81.7409 15.26523382200738
AOBA VELOX-IV           
1 43940U 19003J   22240.84679874  .00017482  00000+0  42877-3 0  9998
2 43940  97.1202 274.7038 0014782 236.1173 123.8669 15.40655499201263
M6P                     
1 44109U 19018AF  22240.78655006  .00012843  00000+0  29675-3 0  9993
2 44109  97.3940 325.7772 0044428 224.8583 134.9070 15.41590912190594
FORMOSAT 7-4            
1 44350U 19036M   22240.67693370  .00002302  00000+0  11797-3 0  9990
2 44350  23.9988 246.7175 0005543 222.5803 137.4271 15.09753066174399
PAINANI 1               
1 44365U 19037A   22240.24004550  .00034272  00000+0  43071-3 0  9997
2 44365  44.9972 321.4343 0011361 318.6549  41.3485 15.59062281178423
METEOR-M2 2             
1 44387U 19038A   22240.89015267 -.00000007  00000+0  16400-4 0  9997
2 44387  98.7281 201.1086 0002381  72.8252 287.3192 14.23717881163713
VDNH-80                 
1 44392U 19038G   22240.76768815  .00003411  00000+0  17060-3 0  9996
2 44392  97.6395 211.3221 0017254 238.8592 240.8180 15.18010293173814
D-STAR ONE (LIGHTSAT)   
1 44393U 19038H   22240.88728120  .00005412  00000+0  26797-3 0  9995
2 44393  97.6414 211.3416 0017412 238.3751 121.5783 15.18086345174020
AMGU-1 (AMURSAT)        
1 44394U 19038J   22240.87802748  .00003602  00000+0  17807-3 0  9995
2 44394  97.6419 211.2964 0017528 238.1405 121.8126 15.18383632174028
DOT-1                   
1 44399U 19038P   22240.88420807  .00003312  00000+0  17672-3 0  9991
2 44399  97.6459 209.9509 0020891 246.9330 112.9699 15.15698211173919
SOKRAT                  
1 44404U 19038U   22240.88138721  .00005842  00000+0  28830-3 0  9997
2 44404  97.6402 210.9420 0017446 240.3063 119.6434 15.18168816174009
